NORAD_CAT_ID,OBJECT_NAME,OBJECT_TYPE,EPOCH,MEAN_MOTION,ECCENTRICITY,INCLINATION,RA_OF_ASC_NODE,ARG_OF_PERICENTER,MEAN_ANOMALY,BSTAR,MEAN_MOTION_DOT,MEAN_MOTION_DDOT,TLE_LINE0,TLE_LINE1,TLE_LINE2,SEMIMAJOR_AXIS,PERIOD,APOGEE,PERIGEE,DECAYED
54182.0,STARLINK-5231,PAYLOAD,2023-11-06 00:49:21,15.08071658,0.0001345,53.2159,210.2069,71.3971,288.7166,0.00066415,0.0001008,0.0,0 STARLINK-5231,1 54182U 22141AB  23310.03427172  .00010080  00000-0  66415-3 0  9999,2 54182  53.2159 210.2069 0001345  71.3971 288.7166 15.08071658 57492,6920.23,95.486,543.026,541.164,0.0
54182.0,STARLINK-5231,PAYLOAD,2023-11-06 10:21:58,15.08052415,0.0001391,53.2167,208.4239,60.0969,300.0161,0.00033028,4.863e-05,0.0,0 STARLINK-5231,1 54182U 22141AB  23310.43192915  .00004863  00000-0  33028-3 0  9993,2 54182  53.2167 208.4239 0001391  60.0969 300.0161 15.08052415 57552,6920.289,95.487,543.116,541.191,0.0
54182.0,STARLINK-5231,PAYLOAD,2023-11-06 21:30:06,15.07960667,9.74e-05,53.2175,206.3463,91.2275,268.8829,-0.00091382,-0.00014455,0.0,0 STARLINK-5231,1 54182U 22141AB  23310.89591326 -.00014455  00000-0 -91382-3 0  9999,2 54182  53.2175 206.3463 0000974  91.2275 268.8829 15.07960667 57399,6920.569,95.493,543.109,541.76,0.0
54182.0,STARLINK-5231,PAYLOAD,2023-11-07 02:16:25,15.07979268,0.000126,53.2156,205.4521,88.763,271.3506,-0.00075493,-0.00012002,0.0,0 STARLINK-5231,1 54182U 22141AB  23311.09473820 -.00012002  00000-0 -75493-3 0  9991,2 54182  53.2156 205.4521 0001260  88.7630 271.3506 15.07979268 57655,6920.513,95.492,543.25,541.506,0.0
54182.0,STARLINK-5231,PAYLOAD,2023-11-07 10:13:35,15.08014196,0.0001264,53.2165,203.9691,97.7528,262.3607,-0.00013829,-2.437e-05,0.0,0 STARLINK-5231,1 54182U 22141AB  23311.42610602 -.00002437  00000-0 -13829-3 0  9995,2 54182  53.2165 203.9691 0001264  97.7528 262.3607 15.08014196 57705,6920.406,95.49,543.145,541.396,0.0
54182.0,STARLINK-5231,PAYLOAD,2023-11-08 02:07:56,15.08045996,0.0001295,53.2166,200.9981,96.9759,263.138,0.0002061,2.926e-05,0.0,0 STARLINK-5231,1 54182U 22141AB  23312.08885204  .00002926  00000-0  20610-3 0  9997,2 54182  53.2166 200.9981 0001295  96.9759 263.1380 15.08045996 57806,6920.308,95.488,543.07,541.277,0.0
54182.0,STARLINK-5231,PAYLOAD,2023-11-08 22:48:37,15.08037982,0.0001023,53.2167,197.1361,96.8201,263.2907,0.0010254,0.00015716,0.0,0 STARLINK-5231,1 54182U 22141AB  23312.95043936  .00015716  00000-0  10254-2 0  9994,2 54182  53.2167 197.1361 0001023  96.8201 263.2907 15.08037982 57707,6920.333,95.488,542.906,541.49,0.0
54182.0,STARLINK-5231,PAYLOAD,2023-11-09 19:29:18,15.08039175,0.0001284,53.2161,193.2755,107.292,252.8212,-4.0091e-05,-9.1e-06,0.0,0 STARLINK-5231,1 54182U 22141AB  23313.81201782 -.00000910  00000-0 -40091-4 0  9991,2 54182  53.2161 193.2755 0001284 107.2920 252.8212 15.08039175 58068,6920.329,95.488,543.083,541.306,0.0
54182.0,STARLINK-5231,PAYLOAD,2023-11-09 22:40:05,15.0811465,0.0001257,53.217,192.6786,122.0726,238.0388,0.00055634,8.405e-05,0.0,0 STARLINK-5231,1 54182U 22141AB  23313.94451236  .00008405  00000-0  55634-3 0  9999,2 54182  53.2170 192.6786 0001257 122.0726 238.0388 15.08114650 57852,6920.098,95.483,542.833,541.094,0.0
54182.0,STARLINK-5231,PAYLOAD,2023-11-10 01:51:05,15.08004992,0.0001136,53.2172,192.0846,117.7503,242.3604,-0.00040886,-6.64e-05,0.0,0 STARLINK-5231,1 54182U 22141AB  23314.07715160 -.00006640  00000-0 -40886-3 0  9997,2 54182  53.2172 192.0846 0001136 117.7503 242.3604 15.08004992 58100,6920.434,95.49,543.085,541.513,0.0
54182.0,STARLINK-5231,PAYLOAD,2023-11-10 19:20:53,15.08024354,0.0001562,53.2169,188.8145,105.6706,254.4458,-0.0003616,-5.909e-05,0.0,0 STARLINK-5231,1 54182U 22141AB  23314.80617336 -.00005909  00000-0 -36160-3 0  9991,2 54182  53.2169 188.8145 0001562 105.6706 254.4458 15.08024354 58212,6920.375,95.489,543.321,541.159,0.0
54182.0,STARLINK-5231,PAYLOAD,2023-11-10 22:31:45,15.08031174,0.000156,53.2165,188.2189,106.078,254.0383,-0.00038548,-6.282e-05,0.0,0 STARLINK-5231,1 54182U 22141AB  23314.93872283 -.00006282  00000-0 -38548-3 0  9996,2 54182  53.2165 188.2189 0001560 106.0780 254.0383 15.08031174 58003,6920.354,95.489,543.298,541.139,0.0
54182.0,STARLINK-5231,PAYLOAD,2023-11-11 22:23:19,15.08010311,0.0001361,53.2166,183.7645,103.897,256.2173,0.00017924,2.504e-05,0.0,0 STARLINK-5231,1 54182U 22141AB  23315.93286852  .00002504  00000-0  17924-3 0  9994,2 54182  53.2166 183.7645 0001361 103.8970 256.2173 15.08010311 58153,6920.418,95.49,543.224,541.341,0.0
54182.0,STARLINK-5231,PAYLOAD,2023-11-12 01:34:12,15.0801183,0.0001485,53.2166,183.1694,107.2779,252.8375,0.00021396,3.045e-05,0.0,0 STARLINK-5231,1 54182U 22141AB  23316.06542041  .00003045  00000-0  21396-3 0  9993,2 54182  53.2166 183.1694 0001485 107.2779 252.8375 15.08011830 58404,6920.413,95.49,543.306,541.25,0.0
54182.0,STARLINK-5231,PAYLOAD,2023-11-12 14:17:42,15.08014195,0.0001519,53.2157,180.7925,106.3747,253.7412,0.00028212,4.107e-05,0.0,0 STARLINK-5231,1 54182U 22141AB  23316.59563471  .00004107  00000-0  28212-3 0  9995,2 54182  53.2157 180.7925 0001519 106.3747 253.7412 15.08014195 58259,6920.406,95.49,543.322,541.219,0.0
54182.0,STARLINK-5231,PAYLOAD,2023-11-12 20:39:27,15.08019204,0.000152,53.2157,179.6041,106.7932,253.3226,0.00023106,3.312e-05,0.0,0 STARLINK-5231,1 54182U 22141AB  23316.86073713  .00003312  00000-0  23106-3 0  9994,2 54182  53.2157 179.6041 0001520 106.7932 253.3226 15.08019204 58296,6920.39,95.49,543.307,541.203,0.0
54182.0,STARLINK-5231,PAYLOAD,2023-11-13 07:47:31,15.08024536,0.0001512,53.2158,177.5242,105.9844,254.1314,0.00025231,3.644e-05,0.0,0 STARLINK-5231,1 54182U 22141AB  23317.32466751  .00003644  00000-0  25231-3 0  9993,2 54182  53.2158 177.5242 0001512 105.9844 254.1314 15.08024536 58595,6920.374,95.489,543.285,541.193,0.0
54182.0,STARLINK-5231,PAYLOAD,2023-11-14 07:39:04,15.08025499,0.0001498,53.216,173.0671,93.2271,266.8893,0.00011738,1.542e-05,0.0,0 STARLINK-5231,1 54182U 22141AB  23318.31880627  .00001542  00000-0  11738-3 0  9997,2 54182  53.2160 173.0671 0001498  93.2271 266.8893 15.08025499 58514,6920.371,95.489,543.273,541.199,0.0
54182.0,STARLINK-5231,PAYLOAD,2023-11-14 20:22:35,15.08018324,0.0001418,53.2159,170.6883,94.3425,265.7729,0.00023773,3.416e-05,0.0,0 STARLINK-5231,1 54182U 22141AB  23318.84901832  .00003416  00000-0  23773-3 0  9991,2 54182  53.2159 170.6883 0001418  94.3425 265.7729 15.08018324 58824,6920.393,95.49,543.239,541.277,0.0
54182.0,STARLINK-5231,PAYLOAD,2023-11-14 23:33:27,15.08024206,0.0001458,53.2159,170.094,91.7899,268.326,4.7888e-05,4.6e-06,0.0,0 STARLINK-5231,1 54182U 22141AB  23318.98156595  .00000460  00000-0  47888-4 0  9994,2 54182  53.2159 170.0940 0001458  91.7899 268.3260 15.08024206 58614,6920.375,95.489,543.249,541.231,0.0
54182.0,STARLINK-5231,PAYLOAD,2023-11-15 20:14:08,15.080243,0.0001475,53.2175,166.2314,90.8711,269.245,8.835e-05,1.09e-05,0.0,0 STARLINK-5231,1 54182U 22141AB  23319.84315374  .00001090  00000-0  88350-4 0  9991,2 54182  53.2175 166.2314 0001475  90.8711 269.2450 15.08024300 58746,6920.375,95.489,543.261,541.219,0.0
54182.0,STARLINK-5231,PAYLOAD,2023-11-15 23:25:00,15.08024701,0.0001499,53.2171,165.6375,90.3185,269.7978,0.00010728,1.384e-05,0.0,0 STARLINK-5231,1 54182U 22141AB  23319.97570563  .00001384  00000-0  10728-3 0  9997,2 54182  53.2171 165.6375 0001499  90.3185 269.7978 15.08024701 58990,6920.374,95.489,543.276,541.201,0.0
54182.0,STARLINK-5231,PAYLOAD,2023-11-16 20:05:41,15.08026307,0.0001463,53.2161,161.7742,92.5779,267.538,0.00011032,1.432e-05,0.0,0 STARLINK-5231,1 54182U 22141AB  23320.83729004  .00001432  00000-0  11032-3 0  9993,2 54182  53.2161 161.7742 0001463  92.5779 267.5380 15.08026307 58894,6920.369,95.489,543.246,541.221,0.0
54182.0,STARLINK-5231,PAYLOAD,2023-11-17 23:08:08,15.08020485,0.000147,53.2164,156.7232,93.8474,266.2686,1.1588e-05,-1.05e-06,0.0,0 STARLINK-5231,1 54182U 22141AB  23321.96398631 -.00000105  00000-0  11588-4 0  9990,2 54182  53.2164 156.7232 0001470  93.8474 266.2686 15.08020485 59290,6920.386,95.489,543.269,541.234,0.0
54182.0,STARLINK-5231,PAYLOAD,2023-11-19 11:43:11,15.08022203,0.0001446,53.217,149.8885,90.7017,269.414,2.6863e-05,1.32e-06,0.0,0 STARLINK-5231,1 54182U 22141AB  23323.48833209  .00000132  00000-0  26863-4 0  9995,2 54182  53.2170 149.8885 0001446  90.7017 269.4140 15.08022203 59522,6920.381,95.489,543.247,541.246,0.0
54182.0,STARLINK-5231,PAYLOAD,2023-11-19 21:15:49,15.08017891,0.0001232,53.2162,148.1061,92.706,267.4072,1.4201e-05,-6.5e-07,0.0,0 STARLINK-5231,1 54182U 22141AB  23323.88599143 -.00000065  00000-0  14201-4 0  9994,2 54182  53.2162 148.1061 0001232  92.7060 267.4072 15.08017891 59354,6920.394,95.49,543.112,541.407,0.0
54182.0,STARLINK-5231,PAYLOAD,2023-11-20 05:13:01,15.08018406,0.0001395,53.2167,146.6199,86.4838,273.6314,1.6773e-05,-2.5e-07,0.0,0 STARLINK-5231,1 54182U 22141AB  23324.21737277 -.00000025  00000-0  16773-4 0  9996,2 54182  53.2167 146.6199 0001395  86.4838 273.6314 15.08018406 59639,6920.393,95.49,543.223,541.292,0.0
54182.0,STARLINK-5231,PAYLOAD,2023-11-20 21:07:23,15.08021119,0.0001291,53.2169,143.6485,90.2369,269.8771,6.4715e-05,7.22e-06,0.0,0 STARLINK-5231,1 54182U 22141AB  23324.88012950  .00000722  00000-0  64715-4 0  9995,2 54182  53.2169 143.6485 0001291  90.2369 269.8771 15.08021119 59508,6920.385,95.489,543.143,541.356,0.0
54182.0,STARLINK-5231,PAYLOAD,2023-11-21 05:04:34,15.08021944,0.0001284,53.2169,142.1627,88.8192,271.2946,6.7336e-05,7.63e-06,0.0,0 STARLINK-5231,1 54182U 22141AB  23325.21150947  .00000763  00000-0  67336-4 0  9999,2 54182  53.2169 142.1627 0001284  88.8192 271.2946 15.08021944 59551,6920.382,95.489,543.136,541.358,0.0
54182.0,STARLINK-5231,PAYLOAD,2023-11-21 17:48:04,15.08024355,0.0001291,53.2169,139.7854,88.6842,271.4297,9.9999e-05,1.271e-05,0.0,0 STARLINK-5231,1 54182U 22141AB  23325.74171520  .00001271  00000-0  99999-4 0  9992,2 54182  53.2169 139.7854 0001291  88.6842 271.4297 15.08024355 59867,6920.375,95.489,543.133,541.346,0.0
